NOAA 17                 
1 27453U 02032A   26066.15015302  .00000312  00000+0  14946-3 0  9997
2 27453  98.8538  30.7529 0010629 289.8722  70.1312 14.26187415232444
NOAA 18                 
1 28654U 05018A   26066.20622222  .00000069  00000+0  59540-4 0  9998
2 28654  98.8159 147.3483 0015318  82.0441 278.2469 14.13710146 71907
NOAA 19                 
1 33591U 09005A   26066.18697066  .00000066  00000+0  59135-4 0  9996
2 33591  98.9610 136.9538 0012992 322.2088  37.8171 14.13456161880071
SUOMI NPP               
1 37849U 11061A   26066.13529837  .00000117  00000+0  76504-4 0  9992
2 37849  98.7868   7.7583 0000407 253.2273 106.8858 14.19542601743962
NOAA 20 (JPSS-1)        
1 43013U 17073A   26066.07947234  .00000126  00000+0  80523-4 0  9995
2 43013  98.7690   6.4926 0001112 140.9934 219.1323 14.19535238429988
NOAA 21 (JPSS-2)        
1 54234U 22150A   26066.11420876  .00000128  00000+0  81424-4 0  9990
2 54234  98.7552   6.4096 0002612 111.0586 249.0869 14.19551369172062
