[{"OBJECT_NAME":"NOAA 17","OBJECT_ID":"2002-032A","EPOCH":"2026-03-07T03:36:13.220928","MEAN_MOTION":14.26187415,"ECCENTRICITY":0.0010629,"INCLINATION":98.8538,"RA_OF_ASC_NODE":30.7529,"ARG_OF_PERICENTER":289.8722,"MEAN_ANOMALY":70.1312,"EPHEMERIS_TYPE":0,"CLASSIFICATION_TYPE":"U","NORAD_CAT_ID":27453,"ELEMENT_SET_NO":999,"REV_AT_EPOCH":23244,"BSTAR":0.00014946,"MEAN_MOTION_DOT":3.12e-6,"MEAN_MOTION_DDOT":0},{"OBJECT_NAME":"NOAA 18","OBJECT_ID":"2005-018A","EPOCH":"2026-03-07T04:56:57.599808","MEAN_MOTION":14.13710146,"ECCENTRICITY":0.0015318,"INCLINATION":98.8159,"RA_OF_ASC_NODE":147.3483,"ARG_OF_PERICENTER":82.0441,"MEAN_ANOMALY":278.2469,"EPHEMERIS_TYPE":0,"CLASSIFICATION_TYPE":"U","NORAD_CAT_ID":28654,"ELEMENT_SET_NO":999,"REV_AT_EPOCH":7190,"BSTAR":5.954e-5,"MEAN_MOTION_DOT":6.9e-7,"MEAN_MOTION_DDOT":0},{"OBJECT_NAME":"NOAA 19","OBJECT_ID":"2009-005A","EPOCH":"2026-03-07T04:29:14.265024","MEAN_MOTION":14.13456161,"ECCENTRICITY":0.0012992,"INCLINATION":98.961,"RA_OF_ASC_NODE":136.9538,"ARG_OF_PERICENTER":322.2088,"MEAN_ANOMALY":37.8171,"EPHEMERIS_TYPE":0,"CLASSIFICATION_TYPE":"U","NORAD_CAT_ID":33591,"ELEMENT_SET_NO":999,"REV_AT_EPOCH":88007,"BSTAR":5.9135e-5,"MEAN_MOTION_DOT":6.6e-7,"MEAN_MOTION_DDOT":0},{"OBJECT_NAME":"SUOMI NPP","OBJECT_ID":"2011-061A","EPOCH":"2026-03-07T03:14:49.779168","MEAN_MOTION":14.19542601,"ECCENTRICITY":4.07e-5,"INCLINATION":98.7868,"RA_OF_ASC_NODE":7.7583,"ARG_OF_PERICENTER":253.2273,"MEAN_ANOMALY":106.8858,"EPHEMERIS_TYPE":0,"CLASSIFICATION_TYPE":"U","NORAD_CAT_ID":37849,"ELEMENT_SET_NO":999,"REV_AT_EPOCH":74396,"BSTAR":7.6504e-5,"MEAN_MOTION_DOT":1.17e-6,"MEAN_MOTION_DDOT":0},{"OBJECT_NAME":"NOAA 20 (JPSS-1)","OBJECT_ID":"2017-073A","EPOCH":"2026-03-07T01:54:26.410176","MEAN_MOTION":14.19535238,"ECCENTRICITY":0.0001112,"INCLINATION":98.769,"RA_OF_ASC_NODE":6.4926,"ARG_OF_PERICENTER":140.9934,"MEAN_ANOMALY":219.1323,"EPHEMERIS_TYPE":0,"CLASSIFICATION_TYPE":"U","NORAD_CAT_ID":43013,"ELEMENT_SET_NO":999,"REV_AT_EPOCH":42998,"BSTAR":8.0523e-5,"MEAN_MOTION_DOT":1.26e-6,"MEAN_MOTION_DDOT":0},{"OBJECT_NAME":"NOAA 21 (JPSS-2)","OBJECT_ID":"2022-150A","EPOCH":"2026-03-07T02:44:27.636864","MEAN_MOTION":14.19551369,"ECCENTRICITY":0.0002612,"INCLINATION":98.7552,"RA_OF_ASC_NODE":6.4096,"ARG_OF_PERICENTER":111.0586,"MEAN_ANOMALY":249.0869,"EPHEMERIS_TYPE":0,"CLASSIFICATION_TYPE":"U","NORAD_CAT_ID":54234,"ELEMENT_SET_NO":999,"REV_AT_EPOCH":17206,"BSTAR":8.1424e-5,"MEAN_MOTION_DOT":1.28e-6,"MEAN_MOTION_DDOT":0}]
